{"type": "FeatureCollection", "features": [{"type": "Feature", "properties": {"norad_id": 26766, "name": "INTELSAT 10 (IS-10)", "group": "intelsat", "lat": -5.053012473684308, "lon": 25.40251436995435, "alt_km": 36132.915125360494, "timestamp": "2025-12-06T09:34:16.585153+00:00", "meta": {"OBJECT_NAME": "INTELSAT 10 (IS-10)", "OBJECT_ID": "2001-019A", "EPOCH": "2025-12-05T12:47:33.691776", "MEAN_MOTION": 0.99078635, "ECCENTRICITY": 0.00078343, "INCLINATION": 8.6118, "RA_OF_ASC_NODE": 61.2275, "ARG_OF_PERICENTER": 219.6027, "MEAN_ANOMALY": 155.367, "EPHEMERIS_TYPE": 0, "CLASSIFICATION_TYPE": "U", "NORAD_CAT_ID": 26766, "ELEMENT_SET_NO": 999, "REV_AT_EPOCH": 4366, "BSTAR": 0, "MEAN_MOTION_DOT": -2.14e-06, "MEAN_MOTION_DDOT": 0}, "tle": {"line1": "1 26766U 01019A   25339.53302884 -.00000214  00000+0  00000+0 0  9999", "line2": "2 26766   8.6118  61.2275 0007834 219.6027 155.3670  0.99078635 43668"}}, "geometry": {"type": "Point", "coordinates": [25.40251436995435, -5.053012473684308]}}, {"type": "Feature", "properties": {"norad_id": 26900, "name": "INTELSAT 902 (IS-902)", "group": "intelsat", "lat": 5.610402721835564, "lon": 168.82713344483744, "alt_km": 35783.29919247168, "timestamp": "2025-12-06T09:34:16.585177+00:00", "meta": {"OBJECT_NAME": "INTELSAT 902 (IS-902)", "OBJECT_ID": "2001-039A", "EPOCH": "2025-12-01T16:59:59.311968", "MEAN_MOTION": 1.00270327, "ECCENTRICITY": 0.00043097, "INCLINATION": 5.6187, "RA_OF_ASC_NODE": 74.2002, "ARG_OF_PERICENTER": 175.119, "MEAN_ANOMALY": 26.3816, "EPHEMERIS_TYPE": 0, "CLASSIFICATION_TYPE": "U", "NORAD_CAT_ID": 26900, "ELEMENT_SET_NO": 999, "REV_AT_EPOCH": 8871, "BSTAR": 0, "MEAN_MOTION_DOT": -2.63e-06, "MEAN_MOTION_DDOT": 0}, "tle": {"line1": "1 26900U 01039A   25335.70832537 -.00000263  00000+0  00000+0 0  9993", "line2": "2 26900   5.6187  74.2002 0004309 175.1190  26.3816  1.00270327 88713"}}, "geometry": {"type": "Point", "coordinates": [168.82713344483744, 5.610402721835564]}}, {"type": "Feature", "properties": {"norad_id": 27380, "name": "INTELSAT 904 (IS-904)", "group": "intelsat", "lat": 5.7775808684983545, "lon": -172.38761780851343, "alt_km": 35786.383014652165, "timestamp": "2025-12-06T09:34:16.585194+00:00", "meta": {"OBJECT_NAME": "INTELSAT 904 (IS-904)", "OBJECT_ID": "2002-007A", "EPOCH": "2025-12-05T15:15:34.511904", "MEAN_MOTION": 1.00268861, "ECCENTRICITY": 0.00017057, "INCLINATION": 6.4364, "RA_OF_ASC_NODE": 71.5131, "ARG_OF_PERICENTER": 207.4869, "MEAN_ANOMALY": 353.0709, "EPHEMERIS_TYPE": 0, "CLASSIFICATION_TYPE": "U", "NORAD_CAT_ID": 27380, "ELEMENT_SET_NO": 999, "REV_AT_EPOCH": 4982, "BSTAR": 0, "MEAN_MOTION_DOT": -2.19e-06, "MEAN_MOTION_DDOT": 0}, "tle": {"line1": "1 27380U 02007A   25339.63581611 -.00000219  00000+0  00000+0 0  9993", "line2": "2 27380   6.4364  71.5131 0001705 207.4869 353.0709  1.00268861 49824"}}, "geometry": {"type": "Point", "coordinates": [-172.38761780851343, 5.7775808684983545]}}, {"type": "Feature", "properties": {"norad_id": 27426, "name": "DIRECTV 5 (TEMPO 1)", "group": "intelsat", "lat": 2.287379169190466, "lon": 108.79134102187277, "alt_km": 35801.622589568324, "timestamp": "2025-12-06T09:34:16.585207+00:00", "meta": {"OBJECT_NAME": "DIRECTV 5 (TEMPO 1)", "OBJECT_ID": "2002-023A", "EPOCH": "2025-12-05T21:43:55.587936", "MEAN_MOTION": 1.00271421, "ECCENTRICITY": 0.00038913, "INCLINATION": 4.3838, "RA_OF_ASC_NODE": 77.7321, "ARG_OF_PERICENTER": 194.0333, "MEAN_ANOMALY": 19.0475, "EPHEMERIS_TYPE": 0, "CLASSIFICATION_TYPE": "U", "NORAD_CAT_ID": 27426, "ELEMENT_SET_NO": 999, "REV_AT_EPOCH": 8618, "BSTAR": 0, "MEAN_MOTION_DOT": -5e-07, "MEAN_MOTION_DDOT": 0}, "tle": {"line1": "1 27426U 02023A   25339.90550449 -.00000050  00000+0  00000+0 0  9990", "line2": "2 27426   4.3838  77.7321 0003891 194.0333  19.0475  1.00271421 86187"}}, "geometry": {"type": "Point", "coordinates": [108.79134102187277, 2.287379169190466]}}, {"type": "Feature", "properties": {"norad_id": 27438, "name": "INTELSAT 905 (IS-905)", "group": "intelsat", "lat": 1.0814577622039094, "lon": 81.78519074385879, "alt_km": 35798.48324035073, "timestamp": "2025-12-06T09:34:16.585219+00:00", "meta": {"OBJECT_NAME": "INTELSAT 905 (IS-905)", "OBJECT_ID": "2002-027A", "EPOCH": "2025-12-03T09:40:44.149728", "MEAN_MOTION": 1.00273288, "ECCENTRICITY": 0.00031296, "INCLINATION": 6.2606, "RA_OF_ASC_NODE": 72.1621, "ARG_OF_PERICENTER": 189.1417, "MEAN_ANOMALY": 179.1858, "EPHEMERIS_TYPE": 0, "CLASSIFICATION_TYPE": "U", "NORAD_CAT_ID": 27438, "ELEMENT_SET_NO": 999, "REV_AT_EPOCH": 4940, "BSTAR": 0, "MEAN_MOTION_DOT": 1.09e-06, "MEAN_MOTION_DDOT": 0}, "tle": {"line1": "1 27438U 02027A   25337.40328877  .00000109  00000+0  00000+0 0  9992", "line2": "2 27438   6.2606  72.1621 0003129 189.1417 179.1858  1.00273288 49408"}}, "geometry": {"type": "Point", "coordinates": [81.78519074385879, 1.0814577622039094]}}, {"type": "Feature", "properties": {"norad_id": 27445, "name": "GALAXY 3C (G-3C)", "group": "intelsat", "lat": 2.2530782708286394, "lon": 124.08064745828975, "alt_km": 35783.395541541, "timestamp": "2025-12-06T09:34:16.585238+00:00", "meta": {"OBJECT_NAME": "GALAXY 3C (G-3C)", "OBJECT_ID": "2002-030A", "EPOCH": "2025-12-05T21:48:17.669376", "MEAN_MOTION": 1.00270565, "ECCENTRICITY": 0.00012513, "INCLINATION": 3.2464, "RA_OF_ASC_NODE": 80.5743, "ARG_OF_PERICENTER": 101.7062, "MEAN_ANOMALY": 124.8895, "EPHEMERIS_TYPE": 0, "CLASSIFICATION_TYPE": "U", "NORAD_CAT_ID": 27445, "ELEMENT_SET_NO": 999, "REV_AT_EPOCH": 4455, "BSTAR": 0, "MEAN_MOTION_DOT": -1.45e-06, "MEAN_MOTION_DDOT": 0}, "tle": {"line1": "1 27445U 02030A   25339.90853784 -.00000145  00000+0  00000+0 0  9992", "line2": "2 27445   3.2464  80.5743 0001251 101.7062 124.8895  1.00270565 44557"}}, "geometry": {"type": "Point", "coordinates": [124.08064745828975, 2.2530782708286394]}}, {"type": "Feature", "properties": {"norad_id": 27513, "name": "INTELSAT 906 (IS-906)", "group": "intelsat", "lat": -2.503234249051853, "lon": -76.93214609537912, "alt_km": 35762.8036360344, "timestamp": "2025-12-06T09:34:16.585260+00:00", "meta": {"OBJECT_NAME": "INTELSAT 906 (IS-906)", "OBJECT_ID": "2002-041A", "EPOCH": "2025-12-05T20:25:38.610912", "MEAN_MOTION": 1.00270266, "ECCENTRICITY": 0.00060537, "INCLINATION": 5.3114, "RA_OF_ASC_NODE": 75.3137, "ARG_OF_PERICENTER": 187.2816, "MEAN_ANOMALY": 182.8578, "EPHEMERIS_TYPE": 0, "CLASSIFICATION_TYPE": "U", "NORAD_CAT_ID": 27513, "ELEMENT_SET_NO": 999, "REV_AT_EPOCH": 8509, "BSTAR": 0, "MEAN_MOTION_DOT": 2e-07, "MEAN_MOTION_DDOT": 0}, "tle": {"line1": "1 27513U 02041A   25339.85114133  .00000020  00000+0  00000+0 0  9993", "line2": "2 27513   5.3114  75.3137 0006053 187.2816 182.8578  1.00270266 85092"}}, "geometry": {"type": "Point", "coordinates": [-76.93214609537912, -2.503234249051853]}}, {"type": "Feature", "properties": {"norad_id": 27954, "name": "GALAXY 13 (HORIZONS-1)", "group": "intelsat", "lat": -0.2502963668396016, "lon": 69.01840523132988, "alt_km": 35794.23522545719, "timestamp": "2025-12-06T09:34:16.585274+00:00", "meta": {"OBJECT_NAME": "GALAXY 13 (HORIZONS-1)", "OBJECT_ID": "2003-044A", "EPOCH": "2025-12-05T18:07:18.060096", "MEAN_MOTION": 1.00273566, "ECCENTRICITY": 0.00020545, "INCLINATION": 0.9175, "RA_OF_ASC_NODE": 86.5611, "ARG_OF_PERICENTER": 165.0331, "MEAN_ANOMALY": 305.0494, "EPHEMERIS_TYPE": 0, "CLASSIFICATION_TYPE": "U", "NORAD_CAT_ID": 27954, "ELEMENT_SET_NO": 999, "REV_AT_EPOCH": 4463, "BSTAR": 0, "MEAN_MOTION_DOT": 1.42e-06, "MEAN_MOTION_DDOT": 0}, "tle": {"line1": "1 27954U 03044A   25339.75507014  .00000142  00000+0  00000+0 0  9994", "line2": "2 27954   0.9175  86.5611 0002054 165.0331 305.0494  1.00273566 44630"}}, "geometry": {"type": "Point", "coordinates": [69.01840523132988, -0.2502963668396016]}}, {"type": "Feature", "properties": {"norad_id": 28358, "name": "INTELSAT 10-02", "group": "intelsat", "lat": -0.0028841632663708225, "lon": -142.0082519644956, "alt_km": 35784.910558454336, "timestamp": "2025-12-06T09:34:16.585286+00:00", "meta": {"OBJECT_NAME": "INTELSAT 10-02", "OBJECT_ID": "2004-022A", "EPOCH": "2025-12-05T22:15:07.597728", "MEAN_MOTION": 1.00269317, "ECCENTRICITY": 0.00011875, "INCLINATION": 0.0378, "RA_OF_ASC_NODE": 75.0175, "ARG_OF_PERICENTER": 211.6401, "MEAN_ANOMALY": 121.1109, "EPHEMERIS_TYPE": 0, "CLASSIFICATION_TYPE": "U", "NORAD_CAT_ID": 28358, "ELEMENT_SET_NO": 999, "REV_AT_EPOCH": 7861, "BSTAR": 0, "MEAN_MOTION_DOT": -2e-08, "MEAN_MOTION_DDOT": 0}, "tle": {"line1": "1 28358U 04022A   25339.92717127 -.00000002  00000+0  00000+0 0  9993", "line2": "2 28358   0.0378  75.0175 0001187 211.6401 121.1109  1.00269317 78619"}}, "geometry": {"type": "Point", "coordinates": [-142.0082519644956, -0.0028841632663708225]}}, {"type": "Feature", "properties": {"norad_id": 28626, "name": "XM-3 (RHYTHM)", "group": "intelsat", "lat": -0.13825013956626667, "lon": 3.4085416902098884, "alt_km": 36155.13613009189, "timestamp": "2025-12-06T09:34:16.585298+00:00", "meta": {"OBJECT_NAME": "XM-3 (RHYTHM)", "OBJECT_ID": "2005-008A", "EPOCH": "2025-12-05T21:14:36.662784", "MEAN_MOTION": 0.9895468, "ECCENTRICITY": 0.0001111, "INCLINATION": 0.1562, "RA_OF_ASC_NODE": 81.0036, "ARG_OF_PERICENTER": 259.6806, "MEAN_ANOMALY": 199.7449, "EPHEMERIS_TYPE": 0, "CLASSIFICATION_TYPE": "U", "NORAD_CAT_ID": 28626, "ELEMENT_SET_NO": 999, "REV_AT_EPOCH": 4068, "BSTAR": 0, "MEAN_MOTION_DOT": -2.66e-06, "MEAN_MOTION_DDOT": 0}, "tle": {"line1": "1 28626U 05008A   25339.88514656 -.00000266  00000+0  00000+0 0  9995", "line2": "2 28626   0.1562  81.0036 0001111 259.6806 199.7449  0.98954680 40688"}}, "geometry": {"type": "Point", "coordinates": [3.4085416902098884, -0.13825013956626667]}}]}